[{"OBJECT_NAME":"STARLINK-34540","OBJECT_ID":"2025-211F","EPOCH":"2026-03-09T17:04:06.544704","MEAN_MOTION":15.05647668,"ECCENTRICITY":0.00019532,"INCLINATION":97.6023,"RA_OF_ASC_NODE":114.0635,"ARG_OF_PERICENTER":112.0865,"MEAN_ANOMALY":248.0569,"EPHEMERIS_TYPE":0,"CLASSIFICATION_TYPE":"U","NORAD_CAT_ID":65657,"ELEMENT_SET_NO":999,"REV_AT_EPOCH":2704,"BSTAR":7.5632757e-5,"MEAN_MOTION_DOT":1.031e-5,"MEAN_MOTION_DDOT":0},{"OBJECT_NAME":"COSMOS 2251 DEB","OBJECT_ID":"1993-036HX","EPOCH":"2026-03-09T21:31:03.673056","MEAN_MOTION":15.04193551,"ECCENTRICITY":0.00046843,"INCLINATION":74.0171,"RA_OF_ASC_NODE":332.1487,"ARG_OF_PERICENTER":332.3762,"MEAN_ANOMALY":27.7177,"EPHEMERIS_TYPE":0,"CLASSIFICATION_TYPE":"U","NORAD_CAT_ID":34036,"ELEMENT_SET_NO":999,"REV_AT_EPOCH":89876,"BSTAR":0.0040391987,"MEAN_MOTION_DOT":0.00056541,"MEAN_MOTION_DDOT":0}]
